STARLINK-32012          
1 60027U 24111M   25239.75742767 -.00000398  00000+0 -13066-5 0  9992
2 60027  53.1580 256.2715 0001152  92.2854 267.8279 15.30189676 69345
STARLINK-32008          
1 60028U 24111N   25239.76164877 -.00001507  00000+0 -38784-4 0  9990
2 60028  53.1593 256.2967 0001262  97.9400 262.1744 15.30192599 69343
STARLINK-32006          
1 60029U 24111P   25240.03240577 -.00000200  00000+0  53773-5 0  9999
2 60029  53.1596 255.1494 0001352  93.5315 266.5840 15.30190289 69380
STARLINK-32011          
1 60030U 24111Q   25240.45900375 -.00000799  00000+0 -14842-4 0  9993
2 60030  53.1590 252.8373 0001158  85.5645 274.5488 15.30196140 69454
STARLINK-31878          
1 60031U 24111R   25240.31031173 -.00006283  00000+0 -20004-3 0  9990
2 60031  53.1586 202.0833 0000955  79.0115 281.0993 15.30225183 69906
STARLINK-32017          
1 60032U 24111S   25239.77537250 -.00000653  00000+0 -99355-5 0  9998
2 60032  53.1596 256.4088 0001337  93.2190 266.8964 15.30187533 69342
STARLINK-32005          
1 60034U 24111U   25240.02607191  .00001044  00000+0  47390-4 0  9996
2 60034  53.1584 255.1068 0000939  92.5155 267.5953 15.30181481 69280
STARLINK-31981          
1 60035U 24111V   25240.04506862  .00000584  00000+0  31860-4 0  9995
2 60035  53.1599 255.2256 0001229  82.8182 277.2958 15.30192747 69316
STARLINK-31985          
1 60036U 24111W   25240.04191592 -.00001690  00000+0 -44969-4 0  9991
2 60036  53.1620 255.2052 0001216  84.2436 275.8704 15.30176247 69321
STARLINK-31918          
1 60037U 24111X   25239.75108171 -.00000410  00000+0 -17157-5 0  9998
2 60037  53.1585 256.2328 0001085  79.7539 280.3584 15.30210312 69279
STARLINK-11129 [DTC]    
1 60038U 24112A   25239.98920018  .00000780  00000+0  11294-4 0  9990
2 60038  53.1579 141.4757 0001023  92.7005 267.4130 15.69707924 70557
STARLINK-11140 [DTC]    
1 60039U 24112B   25239.92062504 -.00000008  00000+0  47945-5 0  9999
2 60039  53.1580 141.7542 0001412 134.5405 225.5729 15.69705327 70549
STARLINK-11122 [DTC]    
1 60040U 24112C   25240.10673072  .00000399  00000+0  81557-5 0  9990
2 60040  53.1578 140.7801 0001083 105.2355 254.8783 15.69703655 70578
STARLINK-11149 [DTC]    
1 60041U 24112D   25240.10182611 -.00000586  00000+0  24130-7 0  9990
2 60041  53.1580 140.7500 0001174  77.5543 282.5606 15.69707297 70577
STARLINK-11120 [DTC]    
1 60042U 24112E   25239.90591383 -.00001555  00000+0 -79868-5 0  9991
2 60042  53.1587 141.6602 0000803  68.2789 291.8315 15.69703794 70540
STARLINK-11086 [DTC]    
1 60043U 24112F   25239.90101287 -.00002855  00000+0 -18731-4 0  9997
2 60043  53.1581 141.6265 0000839  68.0103 292.1004 15.69698485 70546
STARLINK-11148 [DTC]    
1 60044U 24112G   25239.89609778 -.00001669  00000+0 -89211-5 0  9998
2 60044  53.1581 141.5930 0000803  82.5544 277.5565 15.69712527 70549
STARLINK-11116 [DTC]    
1 60045U 24112H   25239.89119323 -.00001606  00000+0 -84085-5 0  9996
2 60045  53.1578 141.5615 0000770  81.7681 278.3425 15.69710106 70547
STARLINK-11155 [DTC]    
1 60046U 24112J   25239.88628774 -.00003901  00000+0 -27341-4 0  9992
2 60046  53.1584 141.5296 0000921  79.7645 280.3477 15.69721682 70546
STARLINK-11163 [DTC]    
1 60047U 24112K   25240.13605677  .00000155  00000+0  61354-5 0  9999
2 60047  53.1596 140.2393 0001074  89.2455 270.8686 15.69710700 70588
STARLINK-11135 [DTC]    
1 60048U 24112L   25239.99400578 -.00000041  00000+0  45194-5 0  9994
2 60048  53.1568 140.7879 0000721  89.8664 270.2437 15.69705317 70562
STARLINK-11151 [DTC]    
1 60049U 24112M   25240.13114893 -.00004082  00000+0 -28827-4 0  9998
2 60049  53.1596 140.2072 0001085  84.9504 275.1637 15.69727579 70589
STARLINK-11137 [DTC]    
1 60050U 24112N   25240.18991353  .00000189  00000+0  64120-5 0  9998
2 60050  53.1582 139.8609 0000726  85.1982 274.9119 15.69710835 70590
STARLINK-31811          
1 60051U 24112P   25239.78230269 -.00001346  00000+0 -33338-4 0  9999
2 60051  53.1595 259.0181 0001375  87.9165 272.1993 15.30195994 68902
STARLINK-31775          
1 60052U 24112Q   25239.77281740 -.00005647  00000+0 -17873-3 0  9992
2 60052  53.1619 258.9650 0001168  81.4624 278.6509 15.30191969 68900
STARLINK-31793          
1 60053U 24112R   25240.04039637 -.00000187  00000+0  58222-5 0  9999
2 60053  53.1589 257.7901 0001246  96.6561 263.4582 15.30189833 68942
STARLINK-31735          
1 60054U 24112S   25240.02773567 -.00000261  00000+0  33116-5 0  9993
2 60054  53.1589 257.7081 0000856  99.4436 260.6661 15.30184124 68945
STARLINK-31788          
1 60055U 24112T   25239.76330812 -.00000285  00000+0  25000-5 0  9994
2 60055  53.1581 258.9008 0001176  86.6784 273.4352 15.30189837 68901
STARLINK-31825          
1 60056U 24112U   25240.42279899  .00038188  00000+0  13032-2 0  9998
2 60056  53.1589 255.9119 0003061 167.3296 192.7782 15.29987751 69001
STARLINK-31437          
1 60057U 24112V   25240.03723091 -.00000348  00000+0  37367-6 0  9993
2 60057  53.1598 257.7690 0001213  98.0421 262.0717 15.30188252 68945
STARLINK-11181 [DTC]    
1 60059U 24113A   25239.77979170  .00003900  00000+0  37050-4 0  9999
2 60059  53.1593  67.2554 0001020  83.6055 276.5079 15.69695298 69109
STARLINK-11176 [DTC]    
1 60060U 24113B   25239.77488619  .00000136  00000+0  59802-5 0  9992
2 60060  53.1598  67.2230 0000758  69.6093 290.5007 15.69704660 69101
STARLINK-11167 [DTC]    
1 60061U 24113C   25239.76997549 -.00002050  00000+0 -12065-4 0  9997
2 60061  53.1593  67.1882 0000704  90.7904 269.3194 15.69718351 69402
STARLINK-11166 [DTC]    
1 60062U 24113D   25239.82874268 -.00000978  00000+0 -32147-5 0  9998
2 60062  53.1599  66.8416 0000931  79.7021 280.4102 15.69709614 69110
STARLINK-11165 [DTC]    
1 60063U 24113E   25239.76016509 -.00001076  00000+0 -40276-5 0  9990
2 60063  53.1592  67.1227 0000736  79.8678 280.2423 15.69713514 69107
STARLINK-11169 [DTC]    
1 60064U 24113F   25239.75526122 -.00001513  00000+0 -76340-5 0  9994
2 60064  53.1594  67.0912 0000685  89.5355 270.5742 15.69711380 69108
STARLINK-11102 [DTC]    
1 60065U 24113G   25239.81402080 -.00000047  00000+0  44683-5 0  9993
2 60065  53.1588  66.7463 0000844  83.2332 276.8782 15.69718129 69114
STARLINK-11141 [DTC]    
1 60066U 24113H   25239.80911374 -.00000055  00000+0  43914-5 0  9999
2 60066  53.1598  66.7121 0000492 128.4859 231.6204 15.69716377 69113
STARLINK-11153 [DTC]    
1 60067U 24113J   25239.93165755 -.00001220  00000+0 -52194-5 0  9994
2 60067  53.1586  66.7837 0000495  63.7846 296.3223 15.69705484 69122
STARLINK-11170 [DTC]    
1 60068U 24113K   25239.79940795 -.00000049  00000+0  44469-5 0  9997
2 60068  53.1592  67.3791 0000522  70.7695 289.3379 15.69710196 69105
STARLINK-11171 [DTC]    
1 60069U 24113L   25240.49487702  .00006455  00000+0  58152-4 0  9990
2 60069  53.1609  63.8942 0001020  92.7685 267.3450 15.69685933 69219
STARLINK-11186 [DTC]    
1 60070U 24113M   25240.48996181 -.00000870  00000+0 -23284-5 0  9993
2 60070  53.1589  63.8619 0000598  69.6586 290.4496 15.69707721 69623
STARLINK-11184 [DTC]    
1 60071U 24113N   25240.48506357 -.00000974  00000+0 -31940-5 0  9999
2 60071  53.1597  63.8668 0000483 104.6519 255.4553 15.69704558 69211
STARLINK-32032          
1 60077U 24113U   25240.22501956  .00000175  00000+0  18065-4 0  9990
2 60077  53.1590 177.4552 0001606  87.5672 272.5513 15.30187191 67615
STARLINK-31441          
1 60091U 24117A   25239.67885448  .00000156  00000+0  17408-4 0  9997
2 60091  53.1616 218.2074 0001421  86.4478 273.6686 15.30189841 67189
STARLINK-32044          
1 60092U 24117B   25240.31194907 -.00000007  00000+0  11900-4 0  9991
2 60092  53.1591 215.0446 0001048  86.9524 273.1597 15.30199299 67287
STARLINK-31239          
1 60093U 24117C   25239.25436656 -.00000294  00000+0  21956-5 0  9994
2 60093  53.1594 220.5363 0001334  87.7228 272.3925 15.30191599 67111
STARLINK-32007          
1 60094U 24117D   25240.15503429 -.00005345  00000+0 -16836-3 0  9991
2 60094  53.1596 216.2025 0000699  89.6610 270.4471 15.30220688 67252
STARLINK-32028          
1 60095U 24117E   25239.23114566  .00000047  00000+0  13704-4 0  9993
2 60095  53.1604 220.3892 0001264  79.0875 281.0268 15.30194949 67113
STARLINK-32016          
1 60096U 24117F   25239.31546459 -.00002042  00000+0 -56886-4 0  9990
2 60096  53.1584 220.2061 0001079  90.7991 269.3133 15.30181095 67120
STARLINK-32003          
1 60097U 24117G   25239.67466229 -.00003281  00000+0 -98804-4 0  9998
2 60097  53.1603 218.1796 0001490  87.6765 272.4407 15.30165302 67183
STARLINK-32026          
1 60098U 24117H   25239.35755361  .00000384  00000+0  25090-4 0  9998
2 60098  53.1607 219.7556 0001310  82.6856 277.4294 15.30196662 67133
STARLINK-31732          
1 60099U 24117J   25239.32484531 -.00000689  00000+0 -11153-4 0  9999
2 60099  53.1590 219.5481 0001280  97.3502 262.7644 15.30186763 67134
STARLINK-31996          
1 60100U 24117K   25240.31828274 -.00000469  00000+0 -37238-5 0  9998
2 60100  53.1600 215.0857 0001367  83.8700 276.2456 15.30190812 67280
STARLINK-31999          
1 60101U 24117L   25239.38393163  .00000724  00000+0  36568-4 0  9994
2 60101  53.1589 219.9222 0001330  88.5697 271.5456 15.30201481 67130
STARLINK-31954          
1 60102U 24117M   25240.35732525  .00000148  00000+0  17110-4 0  9995
2 60102  53.1580 215.3312 0000982  82.6557 277.4555 15.30196980 67282
STARLINK-32013          
1 60103U 24117N   25240.35417662 -.00001930  00000+0 -53068-4 0  9992
2 60103  53.1556 215.3115 0000552  46.9751 313.1296 15.30191106 67284
STARLINK-32009          
1 60104U 24117P   25240.36681770  .00000080  00000+0  14837-4 0  9991
2 60104  53.1578 215.3653 0001109 100.0035 260.1091 15.30196553 67287
STARLINK-32018          
1 60105U 24117Q   25240.34467487  .00000122  00000+0  16255-4 0  9990
2 60105  53.1593 215.2505 0001126  80.3971 279.7157 15.30183927 67288
